ASTROCAST-0402          
1 55109U 23001DE  26068.80661100  .00010930  00000+0  41835-3 0  9996
2 55109  97.5556 160.6821 0004209 216.6984 143.3966 15.26734153129364
STARLINK-35444          
1 66511U 25263AC  26068.12224716  .00038459  00000+0  13985-2 0  9990
2 66511  43.0040 353.7617 0001930 243.9267 116.1386 15.27610410 18811
